[Satellite]
VERSION=1.1
NAME=EXPRESS-AM 44
NICKNAME=EXPRESS-AM 44
TLE1=1 33595U 09007A   17185.57636013 -.00000094  00000-0  00000-0 0  9998
TLE2=2 33595   0.0235 217.5857 0000682 263.5972 358.0524  1.00271575 30774
